[Satellite]
VERSION=1.1
NAME=HODOYOSHI-1
NICKNAME=HODOYOSHI-1
TLE1=1 40299U 14070B   22335.75781837  .00005543  00000-0  20045-3 0  9998
TLE2=2 40299  97.2242  38.9567 0010081 262.3913 191.7267 15.28791370448604
STATUS=0
